0 SL-16 DEB
1 22554U 92093HQ  13280.42943086  .00003599  00000-0  14517-2 0  3115
2 22554 071.4059 272.3206 0086279 042.2545 108.1501 14.26542995 66580
0 SL-16 DEB
1 22554U 92093HQ  13283.07797581  .00004747  00000-0  19071-2 0  3123
2 22554 071.4055 266.7686 0086480 037.9516 030.0211 14.26570439 66965
0 SL-16 DEB
1 22554U 92093HQ  13286.39110343  .00004769  00000-0  19143-2 0  3131
2 22554 071.4044 259.8229 0086816 032.5828 125.2631 14.26596517 67430
0 SL-16 DEB
1 22554U 92093HQ  13289.94871441  .00006928  00000-0  27687-2 0  3140
2 22554 071.4051 252.3614 0087260 026.8683 036.4836 14.26640159 67941
0 SL-16 DEB
1 22554U 92093HQ  13291.98203360  .00005785  00000-0  23129-2 0  3154
2 22554 071.4055 248.0984 0087797 023.6558 039.4245 14.26666489 68232
0 SL-16 DEB
1 22554U 92093HQ  13294.31292955  .00008431  00000-0  33597-2 0  3164
2 22554 071.4058 243.2120 0087703 020.0565 130.8532 14.26691365 68562
